[{"OBJECT_NAME":"STARLINK-31936","OBJECT_ID":"2024-098T","EPOCH":"2026-03-09T12:54:48.281184","MEAN_MOTION":15.27575371,"ECCENTRICITY":0.00011523,"INCLINATION":43.0038,"RA_OF_ASC_NODE":246.5196,"ARG_OF_PERICENTER":272.6607,"MEAN_ANOMALY":87.4113,"EPHEMERIS_TYPE":0,"CLASSIFICATION_TYPE":"U","NORAD_CAT_ID":59875,"ELEMENT_SET_NO":999,"REV_AT_EPOCH":10218,"BSTAR":3.3307489e-5,"MEAN_MOTION_DOT":6.54e-6,"MEAN_MOTION_DDOT":0},{"OBJECT_NAME":"GEOSCAN 2 (RS92S2)","OBJECT_ID":"2025-155Q","EPOCH":"2026-03-09T23:01:48.939744","MEAN_MOTION":15.28709337,"ECCENTRICITY":0.00085277,"INCLINATION":97.4463,"RA_OF_ASC_NODE":37.5259,"ARG_OF_PERICENTER":140.9505,"MEAN_ANOMALY":219.2352,"EPHEMERIS_TYPE":0,"CLASSIFICATION_TYPE":"U","NORAD_CAT_ID":64890,"ELEMENT_SET_NO":999,"REV_AT_EPOCH":6561,"BSTAR":0.00051551761,"MEAN_MOTION_DOT":0.00014341,"MEAN_MOTION_DDOT":0}]
